{"type":"FeatureCollection","features":[{"type":"Feature","geometry":{"type":"Polygon","coordinates":[[[71.41528,51.17662],[71.41532,51.17647],[71.41609,51.17656],[71.41605,51.1767],[71.41528,51.17662]]]},"properties":{"layer":"park","districtId":"saryarka","osmType":"way","osmId":30637500,"name":null}},{"type":"Feature","geometry":{"type":"Polygon","coordinates":[[[71.45467,51.15405],[71.45641,51.15164],[71.45674,51.15157],[71.4577,51.15181],[71.45825,51.15186],[71.46619,51.15419],[71.4655,51.15518],[71.46487,51.15496],[71.46399,51.15529],[71.46387,51.1555],[71.46402,51.1567],[71.46359,51.15688],[71.45838,51.15437],[71.4574,51.15436],[71.457,51.15424],[71.45649,51.15393],[71.45517,51.15455],[71.45484,51.15413],[71.45467,51.15405]]]},"properties":{"layer":"park","districtId":"almaty","osmType":"way","osmId":37883865,"name":"Отан қорғаушылар алаңы"}},{"type":"Feature","geometry":{"type":"Polygon","coordinates":[[[71.40783,51.1336],[71.412,51.13293],[71.41061,51.12938],[71.40642,51.13005],[71.40783,51.1336]]]},"properties":{"layer":"park","districtId":"nura","osmType":"way","osmId":37884583,"name":"Ғашықтар саябағы"}},{"type":"Feature","geometry":{"type":"Polygon","coordinates":[[[71.44197,51.14734],[71.44165,51.14732],[71.44257,51.14534],[71.44303,51.14366],[71.44338,51.14229],[71.44324,51.14074],[71.44331,51.14059],[71.4438,51.14065],[71.44372,51.1425],[71.443,51.14477],[71.44197,51.14734]]]},"properties":{"layer":"park","districtId":"almaty","osmType":"way","osmId":68678495,"name":null}},{"type":"Feature","geometry":{"type":"Polygon","coordinates":[[[71.43611,51.13553],[71.43605,51.13601],[71.4358,51.13649],[71.43712,51.13694],[71.43641,51.13833],[71.43699,51.13843],[71.43684,51.13871],[71.43883,51.13902],[71.43919,51.13802],[71.44135,51.1383],[71.44205,51.13708],[71.44126,51.13618],[71.44112,51.13563],[71.44102,51.13493],[71.44111,51.13466],[71.44073,51.13375],[71.4402,51.13342],[71.43897,51.13296],[71.43485,51.13365],[71.43557,51.13538],[71.43611,51.13553]]]},"properties":{"layer":"park","districtId":"esil","osmType":"way","osmId":69232075,"name":"Жетісу саябағы"}},{"type":"Feature","geometry":{"type":"Polygon","coordinates":[[[71.45377,51.13128],[71.45468,51.13096],[71.45557,51.13093],[71.4556,51.13101],[71.45584,51.13098],[71.45589,51.13127],[71.45597,51.13136],[71.45611,51.13134],[71.45625,51.13157],[71.45726,51.13147],[71.45738,51.13132],[71.45717,51.13075],[71.4582,51.1306],[71.45825,51.13074],[71.45925,51.13317],[71.45956,51.1333],[71.46005,51.13408],[71.45993,51.13417],[71.45817,51.13445],[71.45571,51.13379],[71.45546,51.13274],[71.45515,51.13276],[71.45485,51.13232],[71.45416,51.1324],[71.45377,51.13128]]]},"properties":{"layer":"park","districtId":"almaty","osmType":"way","osmId":112456426,"name":"Бауыржан Момышұлы атындағы саябақ"}},{"type":"Feature","geometry":{"type":"Polygon","coordinates":[[[71.49437,51.15125],[71.4942,51.15119],[71.49387,51.15084],[71.49588,51.15007],[71.4963,51.15048],[71.49437,51.15125]]]},"properties":{"layer":"park","districtId":"almaty","osmType":"way","osmId":113021079,"name":null}},{"type":"Feature","geometry":{"type":"Polygon","coordinates":[[[71.49652,51.15037],[71.49616,51.14999],[71.49778,51.14939],[71.49814,51.14976],[71.49652,51.15037]]]},"properties":{"layer":"park","districtId":"almaty","osmType":"way","osmId":113021085,"name":null}},{"type":"Feature","geometry":{"type":"Polygon","coordinates":[[[71.42346,51.1289],[71.42443,51.12872],[71.42373,51.12709],[71.42271,51.12725],[71.42346,51.1289]]]},"properties":{"layer":"park","districtId":"esil","osmType":"way","osmId":230358854,"name":"Сквер"}},{"type":"Feature","geometry":{"type":"Polygon","coordinates":[[[71.44216,51.12075],[71.44324,51.12057],[71.44321,51.12021],[71.44352,51.11962],[71.4478,51.11493],[71.44819,51.11384],[71.44838,51.11034],[71.44865,51.1091],[71.44924,51.10771],[71.45057,51.10605],[71.44879,51.10712],[71.44182,51.11209],[71.44119,51.11237],[71.44084,51.1126],[71.44022,51.11243],[71.44023,51.11229],[71.43896,51.11241],[71.43925,51.11295],[71.44029,51.11319],[71.44055,51.11395],[71.43978,51.11404],[71.44216,51.12075]]]},"properties":{"layer":"park","districtId":"esil","osmType":"way","osmId":243041606,"name":"Президент саябағы"}},{"type":"Feature","geometry":{"type":"Polygon","coordinates":[[[71.44296,51.13632],[71.44604,51.13156],[71.44367,51.13195],[71.44371,51.13209],[71.44252,51.13242],[71.44198,51.13297],[71.44147,51.13352],[71.44148,51.1339],[71.44228,51.13561],[71.44272,51.13626],[71.44296,51.13632]]]},"properties":{"layer":"park","districtId":"esil","osmType":"way","osmId":243041609,"name":"Арай саябағы"}},{"type":"Feature","geometry":{"type":"Polygon","coordinates":[[[71.40725,51.19496],[71.40677,51.1951],[71.40661,51.19531],[71.40688,51.19564],[71.40718,51.19569],[71.40773,51.19552],[71.40781,51.1953],[71.40758,51.19502],[71.40725,51.19496]]]},"properties":{"layer":"park","districtId":"saryarka","osmType":"way","osmId":243780989,"name":null}},{"type":"Feature","geometry":{"type":"Polygon","coordinates":[[[71.49928,51.14061],[71.49821,51.14202],[71.49903,51.14225],[71.49921,51.14219],[71.49948,51.14248],[71.49934,51.14254],[71.50038,51.14379],[71.50137,51.14345],[71.50122,51.14324],[71.50237,51.14287],[71.50162,51.14192],[71.50137,51.14184],[71.5007,51.14099],[71.49983,51.14125],[71.49928,51.14061]]]},"properties":{"layer":"park","districtId":"almaty","osmType":"way","osmId":243930491,"name":null}},{"type":"Feature","geometry":{"type":"Polygon","coordinates":[[[71.49921,51.14262],[71.49834,51.14385],[71.49917,51.14412],[71.50021,51.14383],[71.49921,51.14262]]]},"properties":{"layer":"park","districtId":"almaty","osmType":"way","osmId":243930492,"name":null}},{"type":"Feature","geometry":{"type":"Polygon","coordinates":[[[71.49813,51.14207],[71.49706,51.14354],[71.49801,51.14379],[71.49866,51.14294],[71.49855,51.1429],[71.49898,51.14231],[71.49813,51.14207]]]},"properties":{"layer":"park","districtId":"almaty","osmType":"way","osmId":243930493,"name":null}},{"type":"Feature","geometry":{"type":"Polygon","coordinates":[[[71.47707,51.16488],[71.47777,51.16556],[71.47824,51.16541],[71.47855,51.16551],[71.47882,51.16591],[71.47858,51.16638],[71.47888,51.16676],[71.47894,51.16734],[71.47885,51.1674],[71.47755,51.16661],[71.47682,51.16672],[71.47608,51.16599],[71.47597,51.16562],[71.47616,51.16526],[71.47707,51.16488]]]},"properties":{"layer":"park","districtId":"baikonur","osmType":"way","osmId":258141028,"name":null}},{"type":"Feature","geometry":{"type":"Polygon","coordinates":[[[71.50329,51.14928],[71.50464,51.14879],[71.50393,51.14802],[71.50256,51.1485],[71.50329,51.14928]]]},"properties":{"layer":"park","districtId":"almaty","osmType":"way","osmId":258145113,"name":null}},{"type":"Feature","geometry":{"type":"Polygon","coordinates":[[[71.47764,51.16438],[71.47748,51.16425],[71.47692,51.16413],[71.47485,51.16404],[71.47387,51.16386],[71.47288,51.16319],[71.47229,51.16293],[71.47197,51.16266],[71.47193,51.16209],[71.47163,51.16169],[71.47019,51.16114],[71.46957,51.16079],[71.46875,51.16111],[71.46861,51.16131],[71.46868,51.16153],[71.47453,51.16463],[71.47527,51.16482],[71.47598,51.16482],[71.47764,51.16438]]]},"properties":{"layer":"park","districtId":"baikonur","osmType":"way","osmId":258147836,"name":null}},{"type":"Feature","geometry":{"type":"Polygon","coordinates":[[[71.46768,51.15872],[71.47004,51.15951],[71.47045,51.15969],[71.4708,51.15999],[71.47004,51.16025],[71.46981,51.16003],[71.46748,51.15892],[71.46768,51.15872]]]},"properties":{"layer":"park","districtId":"almaty","osmType":"way","osmId":258158810,"name":"Парк Пушкинский"}},{"type":"Feature","geometry":{"type":"Polygon","coordinates":[[[71.47618,51.15694],[71.47712,51.15675],[71.47752,51.15682],[71.47788,51.15725],[71.47787,51.15734],[71.4776,51.15746],[71.47674,51.15784],[71.47649,51.15808],[71.47568,51.15838],[71.47563,51.15802],[71.47628,51.15777],[71.47625,51.15765],[71.47662,51.15707],[71.47618,51.15694]]]},"properties":{"layer":"park","districtId":"almaty","osmType":"way","osmId":258173901,"name":"Парк Афганской войне"}},{"type":"Feature","geometry":{"type":"Polygon","coordinates":[[[71.46185,51.15813],[71.46205,51.15785],[71.46111,51.15749],[71.46162,51.15691],[71.46282,51.15737],[71.46299,51.15729],[71.46518,51.15838],[71.46443,51.15887],[71.46185,51.15813]]]},"properties":{"layer":"park","districtId":"baikonur","osmType":"way","osmId":258173903,"name":null}},{"type":"Feature","geometry":{"type":"Polygon","coordinates":[[[71.42005,51.183],[71.42017,51.18259],[71.42212,51.18281],[71.42201,51.18321],[71.42005,51.183]]]},"properties":{"layer":"park","districtId":"saryarka","osmType":"way","osmId":258363087,"name":null}},{"type":"Feature","geometry":{"type":"Polygon","coordinates":[[[71.43123,51.15367],[71.43114,51.15348],[71.43123,51.15334],[71.43221,51.15283],[71.43261,51.15285],[71.43282,51.15306],[71.43268,51.15329],[71.43156,51.15388],[71.43123,51.15367]]]},"properties":{"layer":"park","districtId":"baikonur","osmType":"way","osmId":258365453,"name":null}},{"type":"Feature","geometry":{"type":"Polygon","coordinates":[[[71.43733,51.10799],[71.43649,51.10808],[71.43627,51.10825],[71.43668,51.10865],[71.43725,51.10835],[71.43741,51.10818],[71.43733,51.10799]]]},"properties":{"layer":"park","districtId":"esil","osmType":"way","osmId":258615112,"name":null}},{"type":"Feature","geometry":{"type":"Polygon","coordinates":[[[71.44849,51.11043],[71.44941,51.10908],[71.45006,51.10836],[71.45141,51.1074],[71.45397,51.10615],[71.45672,51.10534],[71.45456,51.10397],[71.45441,51.10398],[71.4541,51.10417],[71.45141,51.10566],[71.45046,51.1064],[71.44915,51.10816],[71.44862,51.10948],[71.44849,51.11043]]]},"properties":{"layer":"park","districtId":"esil","osmType":"way","osmId":258637599,"name":null}},{"type":"Feature","geometry":{"type":"Polygon","coordinates":[[[71.42577,51.16504],[71.42593,51.16464],[71.42624,51.16458],[71.42626,51.1645],[71.42647,51.16455],[71.42645,51.16461],[71.42658,51.16462],[71.4266,51.16455],[71.42734,51.1646],[71.42716,51.16521],[71.42577,51.16504]]]},"properties":{"layer":"park","districtId":"saryarka","osmType":"way","osmId":262166875,"name":"Сквер шахматистов"}},{"type":"Feature","geometry":{"type":"Polygon","coordinates":[[[71.4139,51.12881],[71.41391,51.12901],[71.41418,51.12909],[71.41418,51.12889],[71.4149,51.12888],[71.41579,51.12899],[71.41592,51.12913],[71.41613,51.12913],[71.41625,51.12903],[71.4166,51.12897],[71.4163,51.12828],[71.41409,51.12863],[71.4139,51.12881]]]},"properties":{"layer":"park","districtId":"esil","osmType":"way","osmId":262168265,"name":null}},{"type":"Feature","geometry":{"type":"Polygon","coordinates":[[[71.43125,51.1494],[71.43148,51.14946],[71.43161,51.1496],[71.4323,51.14957],[71.43261,51.14973],[71.4329,51.14968],[71.43306,51.14955],[71.43395,51.14952],[71.43426,51.14934],[71.4344,51.14905],[71.43541,51.1486],[71.43626,51.14793],[71.43657,51.14752],[71.43788,51.147],[71.43807,51.14698],[71.43939,51.14641],[71.43973,51.14587],[71.43986,51.14582],[71.43981,51.14573],[71.44015,51.14523],[71.44026,51.14403],[71.43976,51.14403],[71.4393,51.14487],[71.43885,51.14538],[71.43724,51.14671],[71.43539,51.14757],[71.43551,51.14772],[71.43428,51.14826],[71.43401,51.14806],[71.43119,51.14936],[71.43125,51.1494]]]},"properties":{"layer":"park","districtId":"esil","osmType":"way","osmId":262491203,"name":null}},{"type":"Feature","geometry":{"type":"Polygon","coordinates":[[[71.41787,51.16982],[71.41803,51.16927],[71.41744,51.1692],[71.41731,51.16977],[71.41787,51.16982]]]},"properties":{"layer":"park","districtId":"saryarka","osmType":"way","osmId":384145040,"name":null}},{"type":"Feature","geometry":{"type":"Polygon","coordinates":[[[71.42155,51.16114],[71.42226,51.16116],[71.42212,51.16156],[71.422,51.16153],[71.4219,51.16183],[71.42165,51.16182],[71.42155,51.16114]]]},"properties":{"layer":"park","districtId":"saryarka","osmType":"way","osmId":452070818,"name":null}},{"type":"Feature","geometry":{"type":"Polygon","coordinates":[[[71.42354,51.16089],[71.42382,51.16075],[71.42397,51.16087],[71.42373,51.16168],[71.42341,51.16163],[71.42354,51.16089]]]},"properties":{"layer":"park","districtId":"saryarka","osmType":"way","osmId":452070820,"name":null}},{"type":"Feature","geometry":{"type":"Polygon","coordinates":[[[71.42326,51.16208],[71.42359,51.16212],[71.42367,51.16184],[71.42334,51.1618],[71.42326,51.16208]]]},"properties":{"layer":"park","districtId":"saryarka","osmType":"way","osmId":452070821,"name":null}},{"type":"Feature","geometry":{"type":"Polygon","coordinates":[[[71.4469,51.1521],[71.44699,51.15204],[71.44754,51.1523],[71.4469,51.1521]]]},"properties":{"layer":"park","districtId":"baikonur","osmType":"way","osmId":497699954,"name":null}},{"type":"Feature","geometry":{"type":"Polygon","coordinates":[[[71.4482,51.15274],[71.44823,51.15271],[71.44806,51.15262],[71.44802,51.15266],[71.4482,51.15274]]]},"properties":{"layer":"park","districtId":"baikonur","osmType":"way","osmId":497699956,"name":null}},{"type":"Feature","geometry":{"type":"Polygon","coordinates":[[[71.44799,51.15266],[71.44793,51.15252],[71.44778,51.1524],[71.44769,51.15252],[71.44799,51.15266]]]},"properties":{"layer":"park","districtId":"baikonur","osmType":"way","osmId":497699957,"name":null}},{"type":"Feature","geometry":{"type":"Polygon","coordinates":[[[71.44766,51.15251],[71.44774,51.15237],[71.44669,51.15209],[71.44659,51.15205],[71.44661,51.15213],[71.44766,51.15251]]]},"properties":{"layer":"park","districtId":"baikonur","osmType":"way","osmId":497699959,"name":null}},{"type":"Feature","geometry":{"type":"Polygon","coordinates":[[[71.44683,51.1521],[71.44697,51.15202],[71.44667,51.15192],[71.44666,51.15204],[71.44683,51.1521]]]},"properties":{"layer":"park","districtId":"baikonur","osmType":"way","osmId":497699961,"name":null}},{"type":"Feature","geometry":{"type":"Polygon","coordinates":[[[71.44613,51.15193],[71.44609,51.15169],[71.44662,51.15195],[71.44636,51.152],[71.44613,51.15193]]]},"properties":{"layer":"park","districtId":"baikonur","osmType":"way","osmId":497699962,"name":null}},{"type":"Feature","geometry":{"type":"Polygon","coordinates":[[[71.44572,51.15172],[71.44603,51.15167],[71.44573,51.15153],[71.44551,51.1516],[71.44572,51.15172]]]},"properties":{"layer":"park","districtId":"baikonur","osmType":"way","osmId":497699963,"name":null}},{"type":"Feature","geometry":{"type":"Polygon","coordinates":[[[71.44609,51.15191],[71.44605,51.15169],[71.44575,51.15173],[71.44609,51.15191]]]},"properties":{"layer":"park","districtId":"baikonur","osmType":"way","osmId":497699964,"name":null}},{"type":"Feature","geometry":{"type":"Polygon","coordinates":[[[71.44606,51.15192],[71.44545,51.15162],[71.44542,51.1518],[71.44606,51.15192]]]},"properties":{"layer":"park","districtId":"baikonur","osmType":"way","osmId":497699965,"name":null}},{"type":"Feature","geometry":{"type":"Polygon","coordinates":[[[71.44533,51.1513],[71.44521,51.15125],[71.44552,51.15115],[71.44553,51.15097],[71.44764,51.15216],[71.4492,51.15264],[71.44907,51.15282],[71.44897,51.15278],[71.44906,51.15269],[71.44886,51.15262],[71.44881,51.15269],[71.44872,51.15266],[71.44879,51.15259],[71.4486,51.15253],[71.44845,51.1527],[71.44856,51.15274],[71.44849,51.1528],[71.44775,51.15235],[71.44577,51.15149],[71.44561,51.1513],[71.44533,51.1513]]]},"properties":{"layer":"park","districtId":"baikonur","osmType":"way","osmId":497699966,"name":null}},{"type":"Feature","geometry":{"type":"Polygon","coordinates":[[[71.44548,51.15158],[71.44549,51.1515],[71.44569,51.1515],[71.44548,51.15158]]]},"properties":{"layer":"park","districtId":"baikonur","osmType":"way","osmId":497699967,"name":null}},{"type":"Feature","geometry":{"type":"Polygon","coordinates":[[[71.44518,51.15122],[71.44545,51.15119],[71.44547,51.15101],[71.44525,51.15093],[71.44518,51.15122]]]},"properties":{"layer":"park","districtId":"baikonur","osmType":"way","osmId":497699968,"name":null}},{"type":"Feature","geometry":{"type":"Polygon","coordinates":[[[71.44514,51.15122],[71.44521,51.15078],[71.44483,51.15059],[71.44482,51.15077],[71.44513,51.15085],[71.44514,51.15122]]]},"properties":{"layer":"park","districtId":"baikonur","osmType":"way","osmId":497699969,"name":null}},{"type":"Feature","geometry":{"type":"Polygon","coordinates":[[[71.445,51.15156],[71.44517,51.15151],[71.44539,51.1516],[71.44538,51.15178],[71.445,51.15156]]]},"properties":{"layer":"park","districtId":"baikonur","osmType":"way","osmId":497699970,"name":null}},{"type":"Feature","geometry":{"type":"Polygon","coordinates":[[[71.44512,51.15145],[71.44514,51.15128],[71.44483,51.15113],[71.44493,51.15148],[71.44512,51.15145]]]},"properties":{"layer":"park","districtId":"baikonur","osmType":"way","osmId":497699971,"name":null}},{"type":"Feature","geometry":{"type":"Polygon","coordinates":[[[71.33737,51.18064],[71.33849,51.1801],[71.3379,51.17958],[71.33676,51.18006],[71.33737,51.18064]]]},"properties":{"layer":"park","districtId":"saryarka","osmType":"way","osmId":498773864,"name":null}},{"type":"Feature","geometry":{"type":"Polygon","coordinates":[[[71.45311,51.1682],[71.45331,51.16825],[71.45339,51.1681],[71.45201,51.16637],[71.45171,51.16645],[71.45311,51.1682]]]},"properties":{"layer":"park","districtId":"baikonur","osmType":"way","osmId":499764844,"name":"Журналистер саябағы"}},{"type":"Feature","geometry":{"type":"Polygon","coordinates":[[[71.4624,51.15962],[71.46232,51.15946],[71.46271,51.15891],[71.46164,51.15867],[71.46172,51.15842],[71.46197,51.15835],[71.46414,51.15901],[71.4624,51.15962]]]},"properties":{"layer":"park","districtId":"baikonur","osmType":"way","osmId":500056825,"name":"Құтқарушылар саябағы"}},{"type":"Feature","geometry":{"type":"Polygon","coordinates":[[[71.42655,51.16952],[71.4268,51.1687],[71.427,51.16861],[71.42825,51.16876],[71.4282,51.16895],[71.4274,51.16885],[71.42736,51.16898],[71.42806,51.16907],[71.428,51.1693],[71.42901,51.16942],[71.4289,51.1698],[71.42655,51.16952]]]},"properties":{"layer":"park","districtId":"baikonur","osmType":"way","osmId":500220321,"name":null}},{"type":"Feature","geometry":{"type":"Polygon","coordinates":[[[71.44487,51.14994],[71.44489,51.1498],[71.44506,51.14979],[71.44575,51.14946],[71.44551,51.14973],[71.44511,51.14993],[71.44487,51.14994]]]},"properties":{"layer":"park","districtId":"almaty","osmType":"way","osmId":501738032,"name":null}},{"type":"Feature","geometry":{"type":"Polygon","coordinates":[[[71.44488,51.15014],[71.44505,51.14997],[71.44487,51.14998],[71.44488,51.15014]]]},"properties":{"layer":"park","districtId":"almaty","osmType":"way","osmId":501738035,"name":null}},{"type":"Feature","geometry":{"type":"Polygon","coordinates":[[[71.44493,51.15018],[71.4478,51.15182],[71.44817,51.15198],[71.45053,51.15261],[71.44974,51.15237],[71.44993,51.15214],[71.4482,51.15158],[71.44783,51.15164],[71.44748,51.15152],[71.44695,51.15112],[71.44509,51.15006],[71.44493,51.15018]]]},"properties":{"layer":"park","districtId":"almaty","osmType":"way","osmId":501738038,"name":null}},{"type":"Feature","geometry":{"type":"Polygon","coordinates":[[[71.43159,51.15204],[71.43169,51.1521],[71.43158,51.15216],[71.43149,51.1521],[71.43159,51.15204]]]},"properties":{"layer":"park","districtId":"baikonur","osmType":"way","osmId":502046662,"name":"«Ататүрік» саябағы"}},{"type":"Feature","geometry":{"type":"Polygon","coordinates":[[[71.4219,51.15015],[71.42265,51.14962],[71.42256,51.14955],[71.42319,51.1491],[71.42317,51.14901],[71.4224,51.14914],[71.4219,51.15015]]]},"properties":{"layer":"park","districtId":"nura","osmType":"way","osmId":502046671,"name":null}},{"type":"Feature","geometry":{"type":"Polygon","coordinates":[[[71.44591,51.13918],[71.44747,51.13892],[71.44764,51.13932],[71.45136,51.13866],[71.45124,51.13842],[71.45187,51.1383],[71.45203,51.13869],[71.45255,51.13879],[71.45597,51.13403],[71.4548,51.1341],[71.45465,51.13375],[71.45455,51.13376],[71.45488,51.13481],[71.45363,51.13636],[71.45369,51.13652],[71.45347,51.13656],[71.45232,51.13811],[71.44832,51.13891],[71.4468,51.13817],[71.4463,51.13809],[71.44611,51.13818],[71.44592,51.13808],[71.44572,51.13809],[71.44533,51.13817],[71.4447,51.13845],[71.44451,51.13868],[71.4447,51.13875],[71.44524,51.13854],[71.44591,51.13918]]]},"properties":{"layer":"park","districtId":"almaty","osmType":"way","osmId":502433077,"name":null}},{"type":"Feature","geometry":{"type":"Polygon","coordinates":[[[71.45608,51.15668],[71.45608,51.1564],[71.45679,51.15664],[71.45679,51.15669],[71.45608,51.15668]]]},"properties":{"layer":"park","districtId":"baikonur","osmType":"way","osmId":503925702,"name":null}},{"type":"Feature","geometry":{"type":"Polygon","coordinates":[[[71.47258,51.15719],[71.47345,51.15743],[71.47382,51.15733],[71.47353,51.15702],[71.47371,51.15685],[71.47397,51.15676],[71.47457,51.15674],[71.47477,51.15683],[71.47501,51.15659],[71.47332,51.15609],[71.47327,51.15635],[71.47258,51.15719]]]},"properties":{"layer":"park","districtId":"almaty","osmType":"way","osmId":507291421,"name":null}},{"type":"Feature","geometry":{"type":"Polygon","coordinates":[[[71.47111,51.15518],[71.47123,51.15504],[71.47006,51.15471],[71.46995,51.15486],[71.47111,51.15518]]]},"properties":{"layer":"park","districtId":"almaty","osmType":"way","osmId":509262352,"name":null}},{"type":"Feature","geometry":{"type":"Polygon","coordinates":[[[71.43944,51.15585],[71.43931,51.15509],[71.4386,51.15508],[71.4386,51.15494],[71.43962,51.15495],[71.43961,51.15511],[71.44001,51.15512],[71.43999,51.15586],[71.43944,51.15585]]]},"properties":{"layer":"park","districtId":"baikonur","osmType":"way","osmId":524180479,"name":null}},{"type":"Feature","geometry":{"type":"Polygon","coordinates":[[[71.43782,51.15586],[71.43824,51.15586],[71.43826,51.15531],[71.43849,51.1553],[71.4385,51.15494],[71.43786,51.15493],[71.43782,51.15586]]]},"properties":{"layer":"park","districtId":"baikonur","osmType":"way","osmId":524180480,"name":null}},{"type":"Feature","geometry":{"type":"Polygon","coordinates":[[[71.46089,51.1465],[71.46114,51.1464],[71.46261,51.1464],[71.46251,51.14629],[71.46089,51.14628],[71.46089,51.1465]]]},"properties":{"layer":"park","districtId":"almaty","osmType":"way","osmId":536287083,"name":null}},{"type":"Feature","geometry":{"type":"Polygon","coordinates":[[[71.46033,51.14652],[71.46031,51.14639],[71.46047,51.14634],[71.4606,51.14639],[71.46033,51.14652]]]},"properties":{"layer":"park","districtId":"almaty","osmType":"way","osmId":536287088,"name":null}},{"type":"Feature","geometry":{"type":"Polygon","coordinates":[[[71.46557,51.13521],[71.46565,51.13524],[71.46576,51.13509],[71.46568,51.13506],[71.46557,51.13521]]]},"properties":{"layer":"park","districtId":"almaty","osmType":"way","osmId":556574284,"name":"Сад \"Чистый ручей\""}},{"type":"Feature","geometry":{"type":"Polygon","coordinates":[[[71.46052,51.13467],[71.45991,51.13546],[71.45975,51.13541],[71.45986,51.13525],[71.45967,51.13521],[71.45977,51.13506],[71.45929,51.13493],[71.45909,51.13454],[71.45846,51.1345],[71.46007,51.13425],[71.46019,51.13428],[71.46052,51.13467]]]},"properties":{"layer":"park","districtId":"almaty","osmType":"way","osmId":556574299,"name":"Парк отдыха Момышулы"}},{"type":"Feature","geometry":{"type":"Polygon","coordinates":[[[71.44267,51.15919],[71.44404,51.15843],[71.4438,51.15828],[71.44349,51.15836],[71.44306,51.15861],[71.44272,51.15896],[71.44251,51.15907],[71.44244,51.15922],[71.44255,51.15914],[71.44267,51.15919]]]},"properties":{"layer":"park","districtId":"baikonur","osmType":"way","osmId":606389414,"name":null}},{"type":"Feature","geometry":{"type":"Polygon","coordinates":[[[71.3929,51.13022],[71.39247,51.13003],[71.39328,51.12949],[71.39274,51.12924],[71.39263,51.12896],[71.39547,51.12857],[71.39575,51.12889],[71.39586,51.12922],[71.39491,51.12929],[71.39454,51.12934],[71.39451,51.12941],[71.39393,51.12954],[71.39368,51.12968],[71.39365,51.12961],[71.39333,51.12983],[71.39362,51.13024],[71.39337,51.13043],[71.3929,51.13022]]]},"properties":{"layer":"park","districtId":"nura","osmType":"way","osmId":607452625,"name":"Бухарест саябағы"}},{"type":"Feature","geometry":{"type":"Polygon","coordinates":[[[71.43926,51.1639],[71.43937,51.16356],[71.43952,51.16358],[71.43957,51.16345],[71.43981,51.16348],[71.43975,51.16364],[71.43983,51.16371],[71.44068,51.16381],[71.44047,51.16401],[71.43926,51.1639]]]},"properties":{"layer":"park","districtId":"baikonur","osmType":"way","osmId":609150414,"name":null}},{"type":"Feature","geometry":{"type":"Polygon","coordinates":[[[71.48566,51.15695],[71.4861,51.15679],[71.48544,51.15616],[71.48505,51.15634],[71.48566,51.15695]]]},"properties":{"layer":"park","districtId":"almaty","osmType":"way","osmId":609798547,"name":null}},{"type":"Feature","geometry":{"type":"Polygon","coordinates":[[[71.43833,51.12241],[71.43846,51.12245],[71.43844,51.12259],[71.43852,51.1226],[71.43867,51.12235],[71.43848,51.1223],[71.43833,51.12241]]]},"properties":{"layer":"park","districtId":"esil","osmType":"way","osmId":609969185,"name":null}},{"type":"Feature","geometry":{"type":"Polygon","coordinates":[[[71.45505,51.1502],[71.45445,51.15005],[71.45428,51.15026],[71.45368,51.15009],[71.45358,51.15023],[71.45454,51.15051],[71.45477,51.15018],[71.45505,51.1502]]]},"properties":{"layer":"park","districtId":"almaty","osmType":"way","osmId":620898963,"name":null}},{"type":"Feature","geometry":{"type":"Polygon","coordinates":[[[71.44075,51.16227],[71.44092,51.16293],[71.44117,51.16227],[71.44051,51.1622],[71.44049,51.16228],[71.44075,51.16227]]]},"properties":{"layer":"park","districtId":"baikonur","osmType":"way","osmId":623839035,"name":null}},{"type":"Feature","geometry":{"type":"Polygon","coordinates":[[[71.43944,51.16762],[71.43963,51.16763],[71.43965,51.1672],[71.43936,51.16701],[71.43895,51.16695],[71.43891,51.16711],[71.43944,51.16762]]]},"properties":{"layer":"park","districtId":"baikonur","osmType":"way","osmId":623842697,"name":null}},{"type":"Feature","geometry":{"type":"Polygon","coordinates":[[[71.44324,51.16081],[71.44334,51.16052],[71.44362,51.16056],[71.44355,51.16082],[71.44324,51.16081]]]},"properties":{"layer":"park","districtId":"baikonur","osmType":"way","osmId":623842699,"name":null}},{"type":"Feature","geometry":{"type":"Polygon","coordinates":[[[71.44243,51.1609],[71.44298,51.16096],[71.44304,51.16088],[71.44276,51.16085],[71.44282,51.1605],[71.44307,51.16049],[71.44313,51.16029],[71.44309,51.16009],[71.44265,51.16006],[71.44243,51.1609]]]},"properties":{"layer":"park","districtId":"baikonur","osmType":"way","osmId":623842700,"name":null}},{"type":"Feature","geometry":{"type":"Polygon","coordinates":[[[71.38464,51.14924],[71.38471,51.14913],[71.38463,51.14905],[71.38423,51.14901],[71.38379,51.14912],[71.3837,51.14958],[71.38406,51.14954],[71.38414,51.14921],[71.38464,51.14924]]]},"properties":{"layer":"park","districtId":"nura","osmType":"way","osmId":629227719,"name":null}},{"type":"Feature","geometry":{"type":"Polygon","coordinates":[[[71.43978,51.14035],[71.44003,51.14039],[71.44047,51.13961],[71.4399,51.13945],[71.43978,51.14035]]]},"properties":{"layer":"park","districtId":"esil","osmType":"way","osmId":629228206,"name":null}},{"type":"Feature","geometry":{"type":"Polygon","coordinates":[[[71.38499,51.14931],[71.38496,51.14943],[71.38554,51.14936],[71.38558,51.14913],[71.38548,51.14912],[71.38545,51.14931],[71.38499,51.14931]]]},"properties":{"layer":"park","districtId":"nura","osmType":"way","osmId":630878568,"name":null}},{"type":"Feature","geometry":{"type":"Polygon","coordinates":[[[71.43902,51.11704],[71.43971,51.11889],[71.441,51.11871],[71.44033,51.11691],[71.43902,51.11704]]]},"properties":{"layer":"park","districtId":"esil","osmType":"way","osmId":641203807,"name":null}},{"type":"Feature","geometry":{"type":"Polygon","coordinates":[[[71.42621,51.17122],[71.42661,51.17136],[71.42669,51.17109],[71.4261,51.17103],[71.42621,51.17122]]]},"properties":{"layer":"park","districtId":"baikonur","osmType":"way","osmId":732085493,"name":null}},{"type":"Feature","geometry":{"type":"Polygon","coordinates":[[[71.42838,51.17052],[71.42817,51.1705],[71.4279,51.1712],[71.42778,51.17133],[71.42814,51.17137],[71.42838,51.17052]]]},"properties":{"layer":"park","districtId":"baikonur","osmType":"way","osmId":732085495,"name":null}},{"type":"Feature","geometry":{"type":"Polygon","coordinates":[[[71.427,51.17036],[71.42789,51.17047],[71.42764,51.17128],[71.42722,51.17123],[71.42717,51.1714],[71.42674,51.17135],[71.42685,51.17098],[71.42724,51.17102],[71.42739,51.17054],[71.42696,51.17049],[71.427,51.17036]]]},"properties":{"layer":"park","districtId":"baikonur","osmType":"way","osmId":732085496,"name":null}},{"type":"Feature","geometry":{"type":"Polygon","coordinates":[[[71.42739,51.11639],[71.42437,51.11682],[71.4259,51.12075],[71.42892,51.12029],[71.42739,51.11639]]]},"properties":{"layer":"park","districtId":"esil","osmType":"way","osmId":734514013,"name":"Сызықтық саябақ"}},{"type":"Feature","geometry":{"type":"Polygon","coordinates":[[[71.41198,51.17563],[71.41212,51.17523],[71.41248,51.17517],[71.41262,51.17484],[71.41296,51.17475],[71.41313,51.17416],[71.41279,51.17411],[71.41285,51.17383],[71.412,51.17371],[71.41151,51.17537],[71.41164,51.17553],[71.41198,51.17563]]]},"properties":{"layer":"park","districtId":"saryarka","osmType":"way","osmId":765450049,"name":"Ақжайық сквері"}},{"type":"Feature","geometry":{"type":"Polygon","coordinates":[[[71.35169,51.17951],[71.35248,51.17978],[71.35291,51.17946],[71.35542,51.17896],[71.35494,51.17832],[71.35464,51.1779],[71.35373,51.1773],[71.35169,51.17951]]]},"properties":{"layer":"park","districtId":"saryarka","osmType":"way","osmId":885788799,"name":null}},{"type":"Feature","geometry":{"type":"Polygon","coordinates":[[[71.35171,51.17888],[71.3535,51.17698],[71.35215,51.17554],[71.34945,51.17641],[71.35171,51.17888]]]},"properties":{"layer":"park","districtId":"saryarka","osmType":"way","osmId":885788800,"name":null}},{"type":"Feature","geometry":{"type":"Polygon","coordinates":[[[71.34915,51.17588],[71.35196,51.17495],[71.35078,51.17208],[71.34988,51.17178],[71.34792,51.17322],[71.34915,51.17588]]]},"properties":{"layer":"park","districtId":"saryarka","osmType":"way","osmId":885788801,"name":"Көктал саябағы"}},{"type":"Feature","geometry":{"type":"Polygon","coordinates":[[[71.40583,51.17153],[71.40602,51.17091],[71.40649,51.17097],[71.40632,51.1716],[71.40583,51.17153]]]},"properties":{"layer":"park","districtId":"saryarka","osmType":"way","osmId":1102266212,"name":null}},{"type":"Feature","geometry":{"type":"Polygon","coordinates":[[[71.40566,51.17068],[71.40579,51.17081],[71.40727,51.17096],[71.40739,51.17054],[71.4064,51.17044],[71.40614,51.17049],[71.40611,51.17057],[71.40597,51.17056],[71.40584,51.17025],[71.4055,51.17025],[71.40548,51.17061],[71.40566,51.17068]]]},"properties":{"layer":"park","districtId":"saryarka","osmType":"way","osmId":1103997760,"name":null}},{"type":"Feature","geometry":{"type":"Polygon","coordinates":[[[71.55859,51.14755],[71.55914,51.14803],[71.55996,51.1484],[71.561,51.14763],[71.56004,51.14705],[71.55859,51.14755]]]},"properties":{"layer":"park","districtId":"almaty","osmType":"way","osmId":1180591110,"name":null}},{"type":"Feature","geometry":{"type":"Polygon","coordinates":[[[71.40832,51.10279],[71.4187,51.10132],[71.42184,51.10102],[71.42477,51.10941],[71.41137,51.11131],[71.40832,51.10279]]]},"properties":{"layer":"park","districtId":"esil","osmType":"way","osmId":1196402246,"name":"Ботаникалық бақ"}},{"type":"Feature","geometry":{"type":"Polygon","coordinates":[[[71.42846,51.09827],[71.42889,51.09821],[71.42875,51.0978],[71.42832,51.09786],[71.42846,51.09827]]]},"properties":{"layer":"park","districtId":"esil","osmType":"way","osmId":1204592699,"name":null}},{"type":"Feature","geometry":{"type":"Polygon","coordinates":[[[71.43089,51.16563],[71.4309,51.1657],[71.43147,51.1658],[71.43156,51.16546],[71.43141,51.16538],[71.43109,51.16538],[71.43096,51.16543],[71.43089,51.16563]]]},"properties":{"layer":"park","districtId":"baikonur","osmType":"way","osmId":1336946290,"name":null}},{"type":"Feature","geometry":{"type":"Polygon","coordinates":[[[71.43029,51.16518],[71.43041,51.16526],[71.43032,51.16556],[71.43022,51.16555],[71.43013,51.16572],[71.43029,51.16518]]]},"properties":{"layer":"park","districtId":"baikonur","osmType":"way","osmId":1337323106,"name":null}},{"type":"Feature","geometry":{"type":"Polygon","coordinates":[[[71.43096,51.16543],[71.43141,51.16538],[71.43145,51.16527],[71.43133,51.16525],[71.43144,51.16522],[71.43156,51.16485],[71.43146,51.16484],[71.43148,51.16478],[71.43117,51.16474],[71.43096,51.16543]]]},"properties":{"layer":"park","districtId":"baikonur","osmType":"way","osmId":1337323107,"name":null}},{"type":"Feature","geometry":{"type":"Polygon","coordinates":[[[71.43165,51.1663],[71.4317,51.16613],[71.43404,51.16639],[71.43398,51.16658],[71.43165,51.1663]]]},"properties":{"layer":"park","districtId":"baikonur","osmType":"way","osmId":1338847178,"name":null}},{"type":"Feature","geometry":{"type":"Polygon","coordinates":[[[71.44047,51.16301],[71.44067,51.16299],[71.44043,51.16227],[71.44042,51.16246],[71.44037,51.16282],[71.44051,51.16286],[71.44047,51.16301]]]},"properties":{"layer":"park","districtId":"baikonur","osmType":"way","osmId":1339448504,"name":null}},{"type":"Feature","geometry":{"type":"Polygon","coordinates":[[[71.41409,51.16358],[71.41428,51.1636],[71.41452,51.16351],[71.41491,51.16234],[71.41449,51.16223],[71.41409,51.16358]]]},"properties":{"layer":"park","districtId":"saryarka","osmType":"way","osmId":1340552842,"name":null}},{"type":"Feature","geometry":{"type":"Polygon","coordinates":[[[71.44474,51.1384],[71.44841,51.13252],[71.44896,51.13208],[71.44926,51.13196],[71.45113,51.1317],[71.45167,51.13173],[71.45304,51.13224],[71.4543,51.1332],[71.4548,51.13478],[71.4522,51.13805],[71.44824,51.13885],[71.44705,51.13822],[71.44642,51.13806],[71.44554,51.1381],[71.44474,51.1384]]]},"properties":{"layer":"park","districtId":"almaty","osmType":"way","osmId":1363058986,"name":"Триатлон саябағы"}},{"type":"Feature","geometry":{"type":"Polygon","coordinates":[[[71.443,51.10222],[71.44303,51.10173],[71.44331,51.10118],[71.44406,51.1006],[71.44505,51.10028],[71.44592,51.1002],[71.44674,51.10027],[71.4475,51.10052],[71.44811,51.1009],[71.44853,51.10137],[71.4487,51.1019],[71.44864,51.10244],[71.44833,51.10294],[71.4478,51.10336],[71.44744,51.10355],[71.4466,51.1038],[71.44567,51.10388],[71.44507,51.10385],[71.44349,51.10304],[71.44317,51.10271],[71.44323,51.10241],[71.443,51.10222]]]},"properties":{"layer":"park","districtId":"esil","osmType":"way","osmId":1424109192,"name":"Самал саябағы"}},{"type":"Feature","geometry":{"type":"Polygon","coordinates":[[[71.42793,51.17037],[71.42764,51.17128],[71.42722,51.17123],[71.42711,51.17151],[71.42596,51.1714],[71.42607,51.17101],[71.42663,51.16914],[71.42789,51.16929],[71.42777,51.16975],[71.42713,51.16968],[71.42692,51.17025],[71.42793,51.17037]]]},"properties":{"layer":"park","districtId":"baikonur","osmType":"way","osmId":1428964223,"name":"Жастар сарайы алаңы"}},{"type":"Feature","geometry":{"type":"Polygon","coordinates":[[[71.41641,51.16699],[71.4185,51.16725],[71.41891,51.16604],[71.41679,51.16578],[71.41641,51.16699]]]},"properties":{"layer":"park","districtId":"saryarka","osmType":"way","osmId":1428966977,"name":"Тұңғыш Президент мұражайының алаңы"}},{"type":"Feature","geometry":{"type":"Polygon","coordinates":[[[71.38432,51.13567],[71.38024,51.13633],[71.38007,51.13603],[71.3842,51.13537],[71.38432,51.13567]]]},"properties":{"layer":"park","districtId":"nura","osmType":"way","osmId":1450732938,"name":"Greenline"}},{"type":"Feature","geometry":{"type":"Polygon","coordinates":[[[71.41705,51.09655],[71.42015,51.09611],[71.41977,51.09508],[71.41944,51.09507],[71.41921,51.09445],[71.41923,51.09436],[71.4195,51.09432],[71.41917,51.09317],[71.41933,51.09225],[71.41969,51.09148],[71.41903,51.09108],[71.41844,51.09139],[71.41782,51.09163],[71.41663,51.09181],[71.4155,51.09181],[71.41425,51.09157],[71.41375,51.0919],[71.41505,51.09275],[71.41581,51.09352],[71.41617,51.09346],[71.41652,51.09417],[71.41623,51.09428],[71.41705,51.09655]]]},"properties":{"layer":"park","districtId":"esil","osmType":"way","osmId":1456208624,"name":"Бейбітшілік пен Келісім аллеясы"}},{"type":"Feature","geometry":{"type":"Polygon","coordinates":[[[71.39176,51.08499],[71.39217,51.08461],[71.39687,51.08394],[71.39721,51.08357],[71.39711,51.08327],[71.39136,51.0841],[71.39167,51.08501],[71.39176,51.08499]]]},"properties":{"layer":"park","districtId":"nura","osmType":"way","osmId":1459874428,"name":null}},{"type":"Feature","geometry":{"type":"Polygon","coordinates":[[[71.42929,51.15241],[71.42942,51.15216],[71.42922,51.15192],[71.42977,51.15161],[71.43001,51.15133],[71.43085,51.1511],[71.43223,51.15079],[71.43288,51.15073],[71.43296,51.15093],[71.43352,51.15132],[71.43378,51.15172],[71.43342,51.15195],[71.43336,51.15223],[71.4338,51.15237],[71.43433,51.15222],[71.43441,51.15231],[71.4335,51.15278],[71.43318,51.15283],[71.43272,51.1527],[71.43218,51.15267],[71.43189,51.15276],[71.43106,51.15325],[71.43076,51.15331],[71.43041,51.15321],[71.42929,51.15241]]]},"properties":{"layer":"park","districtId":"baikonur","osmType":"way","osmId":1460702136,"name":"Ататүрік саябағы"}},{"type":"Feature","geometry":{"type":"Polygon","coordinates":[[[71.39854,51.08592],[71.39878,51.08664],[71.398,51.08675],[71.39806,51.08715],[71.39774,51.08723],[71.39793,51.08789],[71.39825,51.08782],[71.39832,51.088],[71.39916,51.08787],[71.39935,51.08838],[71.39921,51.08847],[71.39926,51.08861],[71.4007,51.08841],[71.40086,51.08882],[71.40114,51.08877],[71.40006,51.08572],[71.39854,51.08592]]]},"properties":{"layer":"park","districtId":"nura","osmType":"way","osmId":1467797207,"name":"NU Park"}},{"type":"Feature","geometry":{"type":"Polygon","coordinates":[[[71.36268,51.13353],[71.36298,51.13341],[71.36342,51.1335],[71.3641,51.13339],[71.36389,51.13254],[71.36274,51.1327],[71.36249,51.13301],[71.36268,51.13353]]]},"properties":{"layer":"park","districtId":"nura","osmType":"way","osmId":1526900307,"name":"Сквер Жагалау"}},{"type":"Feature","geometry":{"type":"Polygon","coordinates":[[[71.37909,51.13607],[71.37954,51.13653],[71.37464,51.13729],[71.37444,51.13678],[71.37909,51.13607]]]},"properties":{"layer":"park","districtId":"nura","osmType":"way","osmId":1534678435,"name":"Greenline"}}]}