{"type":"FeatureCollection","features":[{"type":"Feature","geometry":{"type":"LineString","coordinates":[[71.36672,51.15829],[71.3684,51.15925],[71.36953,51.15938],[71.36989,51.15965],[71.37006,51.16055],[71.36996,51.16078],[71.36919,51.16084],[71.36886,51.16105],[71.36869,51.1618],[71.36744,51.16364]]},"properties":{"layer":"river","districtId":"nura","osmType":"way","osmId":23983716,"name":null,"nameRu":null,"isEsil":false}},{"type":"Feature","geometry":{"type":"LineString","coordinates":[[71.40936,51.15721],[71.40657,51.15555],[71.40432,51.15458],[71.40343,51.15431],[71.39998,51.1542],[71.39831,51.15369],[71.39425,51.15178],[71.39235,51.15125],[71.38433,51.15094],[71.38213,51.15129],[71.38028,51.15216],[71.37925,51.15373],[71.37877,51.15739],[71.37682,51.16434]]},"properties":{"layer":"river","districtId":"nura","osmType":"way","osmId":23983719,"name":"Есіл","nameRu":"Ишим","isEsil":true}},{"type":"Feature","geometry":{"type":"LineString","coordinates":[[71.28981,51.17691],[71.28897,51.17819],[71.28791,51.17886],[71.28784,51.17999],[71.28513,51.18253]]},"properties":{"layer":"river","districtId":"nura","osmType":"way","osmId":39363472,"name":"Есіл","nameRu":"Ишим","isEsil":true}},{"type":"Feature","geometry":{"type":"LineString","coordinates":[[71.47108,51.09872],[71.47273,51.09946],[71.47434,51.1017],[71.4758,51.10282]]},"properties":{"layer":"river","districtId":"esil","osmType":"way","osmId":166256725,"name":"Есіл","nameRu":"Ишим","isEsil":true}},{"type":"Feature","geometry":{"type":"LineString","coordinates":[[71.48972,51.09963],[71.48628,51.09846],[71.47907,51.09718],[71.47607,51.09692],[71.47537,51.09713],[71.47444,51.09816],[71.47273,51.09946]]},"properties":{"layer":"river","districtId":"esil","osmType":"way","osmId":166256726,"name":"Есіл","nameRu":"Ишим","isEsil":true}},{"type":"Feature","geometry":{"type":"LineString","coordinates":[[71.38834,51.17754],[71.3874,51.17604],[71.38599,51.17546],[71.38029,51.16894],[71.37698,51.16646],[71.37652,51.16436]]},"properties":{"layer":"river","districtId":"saryarka","osmType":"way","osmId":236535348,"name":null,"nameRu":null,"isEsil":false}},{"type":"Feature","geometry":{"type":"LineString","coordinates":[[71.32607,51.16976],[71.32513,51.16935],[71.32323,51.16788],[71.32026,51.16698],[71.31667,51.16703],[71.31357,51.16626],[71.31216,51.16614],[71.31011,51.16652],[71.30869,51.16641]]},"properties":{"layer":"river","districtId":"nura","osmType":"way","osmId":259266981,"name":"Есіл","nameRu":"Ишим","isEsil":true}},{"type":"Feature","geometry":{"type":"LineString","coordinates":[[71.3886,51.17799],[71.38834,51.17754]]},"properties":{"layer":"river","districtId":"saryarka","osmType":"way","osmId":329343445,"name":null,"nameRu":null,"isEsil":false}},{"type":"Feature","geometry":{"type":"LineString","coordinates":[[71.40292,51.19507],[71.40111,51.19303],[71.40134,51.19181],[71.40011,51.19122],[71.39966,51.19053],[71.39751,51.19013],[71.39717,51.18991],[71.39701,51.18893],[71.39247,51.18487],[71.39137,51.18338]]},"properties":{"layer":"river","districtId":"saryarka","osmType":"way","osmId":329343446,"name":"Ручей Сары Булак","nameRu":null,"isEsil":false}},{"type":"Feature","geometry":{"type":"LineString","coordinates":[[71.39137,51.18338],[71.39122,51.18307]]},"properties":{"layer":"river","districtId":"saryarka","osmType":"way","osmId":501687483,"name":"Ручей Сары Булак","nameRu":null,"isEsil":false}},{"type":"Feature","geometry":{"type":"LineString","coordinates":[[71.39122,51.18307],[71.3886,51.17799]]},"properties":{"layer":"river","districtId":"saryarka","osmType":"way","osmId":501687484,"name":"Ручей Сары Булак","nameRu":null,"isEsil":false}},{"type":"Feature","geometry":{"type":"LineString","coordinates":[[71.40375,51.19867],[71.40311,51.19787]]},"properties":{"layer":"river","districtId":"saryarka","osmType":"way","osmId":608535563,"name":"Ручей Сары Булак","nameRu":null,"isEsil":false}},{"type":"Feature","geometry":{"type":"LineString","coordinates":[[71.4301,51.20425],[71.41591,51.20226],[71.41252,51.20094],[71.41139,51.20091],[71.41029,51.20065],[71.40877,51.19986],[71.40608,51.20084],[71.40375,51.19867]]},"properties":{"layer":"river","districtId":"baikonur","osmType":"way","osmId":608535564,"name":"Ручей Сары Булак","nameRu":null,"isEsil":false}},{"type":"Feature","geometry":{"type":"LineString","coordinates":[[71.40315,51.19569],[71.40309,51.19541]]},"properties":{"layer":"river","districtId":"saryarka","osmType":"way","osmId":608542750,"name":"Ручей Сары Булак","nameRu":null,"isEsil":false}},{"type":"Feature","geometry":{"type":"LineString","coordinates":[[71.40311,51.19787],[71.40288,51.19704],[71.40315,51.19569]]},"properties":{"layer":"river","districtId":"saryarka","osmType":"way","osmId":608542751,"name":"Ручей Сары Булак","nameRu":null,"isEsil":false}},{"type":"Feature","geometry":{"type":"LineString","coordinates":[[71.28382,51.18221],[71.28233,51.18184],[71.28212,51.18134],[71.28311,51.18079],[71.28263,51.18063],[71.28264,51.1801],[71.28166,51.17958],[71.28103,51.17986],[71.28092,51.18062],[71.27991,51.18115],[71.2791,51.18055],[71.2783,51.1804],[71.27789,51.18066],[71.27794,51.1812],[71.27758,51.18132],[71.27722,51.18107],[71.27738,51.18023],[71.27641,51.18017],[71.27608,51.18038],[71.27634,51.18148],[71.27576,51.18148],[71.2756,51.18214],[71.27493,51.18204],[71.2742,51.18146],[71.27323,51.18139],[71.27191,51.18263],[71.2719,51.18293],[71.2727,51.18355],[71.27224,51.18386],[71.27158,51.18391],[71.271,51.1833],[71.2707,51.18366],[71.27099,51.18446],[71.27032,51.18461],[71.2701,51.18505],[71.27029,51.1856],[71.26994,51.18641],[71.27195,51.18721]]},"properties":{"layer":"river","districtId":"nura","osmType":"way","osmId":1074161857,"name":null,"nameRu":null,"isEsil":false}},{"type":"Feature","geometry":{"type":"LineString","coordinates":[[71.28513,51.18253],[71.28335,51.18369],[71.27305,51.18825]]},"properties":{"layer":"river","districtId":"nura","osmType":"way","osmId":1097254907,"name":"Есіл","nameRu":"Ишим","isEsil":true}},{"type":"Feature","geometry":{"type":"LineString","coordinates":[[71.30367,51.17213],[71.29564,51.17345],[71.29299,51.17434],[71.29056,51.17601],[71.28981,51.17691]]},"properties":{"layer":"river","districtId":"nura","osmType":"way","osmId":1097254920,"name":"Есіл","nameRu":"Ишим","isEsil":true}},{"type":"Feature","geometry":{"type":"LineString","coordinates":[[71.32127,51.1596],[71.31807,51.16106],[71.31896,51.16283],[71.32037,51.16347],[71.32082,51.16495],[71.32021,51.16519],[71.31852,51.16693]]},"properties":{"layer":"river","districtId":"nura","osmType":"way","osmId":1097437673,"name":null,"nameRu":null,"isEsil":false}},{"type":"Feature","geometry":{"type":"LineString","coordinates":[[71.55088,51.10098],[71.55117,51.1],[71.55159,51.0995],[71.55159,51.09895],[71.55198,51.09849],[71.55301,51.0975],[71.55383,51.09733],[71.55497,51.0965],[71.55502,51.09598],[71.55373,51.09587],[71.55323,51.09551],[71.55371,51.09487],[71.55546,51.0947],[71.55465,51.09388],[71.55495,51.09364],[71.55554,51.09349],[71.55745,51.0938],[71.55859,51.09423],[71.55917,51.09493],[71.56011,51.09472],[71.5619,51.09321],[71.56337,51.09282],[71.56426,51.09287],[71.56439,51.093],[71.56397,51.09324],[71.56466,51.09379],[71.56572,51.09396],[71.56708,51.09374],[71.56819,51.09307],[71.56842,51.09246],[71.56772,51.0917],[71.56764,51.09112],[71.56937,51.09068],[71.56887,51.08904],[71.57046,51.08789],[71.5718,51.0876],[71.57189,51.08742],[71.57129,51.08684],[71.56972,51.08636],[71.56881,51.08641],[71.56867,51.08613],[71.56906,51.08577],[71.56909,51.08538],[71.56756,51.08506],[71.56688,51.08511],[71.56642,51.08446],[71.565,51.08484],[71.56365,51.08496],[71.56337,51.08469],[71.56369,51.08426],[71.56262,51.08355],[71.56274,51.08282],[71.5602,51.08176],[71.56089,51.08101],[71.55971,51.07973],[71.56031,51.07892],[71.55974,51.07804],[71.55966,51.07696],[71.55992,51.07678],[71.56141,51.07656],[71.56142,51.076],[71.56213,51.07553],[71.56222,51.07497],[71.5619,51.07412],[71.56101,51.07357],[71.56095,51.07324],[71.56159,51.07286],[71.56191,51.07212],[71.56129,51.0716],[71.56104,51.07084],[71.56233,51.07059],[71.5639,51.06986],[71.56489,51.06972]]},"properties":{"layer":"river","districtId":"esil","osmType":"way","osmId":1117094466,"name":"Қарасу","nameRu":"Карасу","isEsil":false}},{"type":"Feature","geometry":{"type":"LineString","coordinates":[[71.403,51.19519],[71.40292,51.19507]]},"properties":{"layer":"river","districtId":"saryarka","osmType":"way","osmId":1164716141,"name":"Ручей Сары Булак","nameRu":null,"isEsil":false}},{"type":"Feature","geometry":{"type":"LineString","coordinates":[[71.40309,51.19541],[71.403,51.19519]]},"properties":{"layer":"river","districtId":"saryarka","osmType":"way","osmId":1164716142,"name":"Ручей Сары Булак","nameRu":null,"isEsil":false}},{"type":"Feature","geometry":{"type":"LineString","coordinates":[[71.33109,51.17268],[71.32783,51.17117],[71.32664,51.17102]]},"properties":{"layer":"river","districtId":"nura","osmType":"way","osmId":1176994365,"name":"Есіл","nameRu":"Ишим","isEsil":true}},{"type":"Feature","geometry":{"type":"LineString","coordinates":[[71.29969,51.17193],[71.29539,51.17053],[71.29393,51.17016],[71.29255,51.17012],[71.29231,51.17037],[71.29303,51.17124],[71.29258,51.17204],[71.29178,51.17209],[71.28984,51.1717],[71.28908,51.17212],[71.28973,51.17251],[71.29206,51.17328],[71.29191,51.17364],[71.2915,51.17382],[71.29011,51.17365],[71.28962,51.17388],[71.29034,51.17466],[71.29022,51.17493],[71.28874,51.17477],[71.28855,51.17546],[71.28888,51.17612]]},"properties":{"layer":"river","districtId":"nura","osmType":"way","osmId":1177557344,"name":"Есіл","nameRu":"Ишим","isEsil":true}},{"type":"Feature","geometry":{"type":"LineString","coordinates":[[71.32664,51.17102],[71.32389,51.17014],[71.32327,51.16976],[71.3197,51.16987],[71.31614,51.17024],[71.30367,51.17213]]},"properties":{"layer":"river","districtId":"nura","osmType":"way","osmId":1177557345,"name":null,"nameRu":null,"isEsil":false}},{"type":"Feature","geometry":{"type":"LineString","coordinates":[[71.30335,51.17154],[71.30367,51.17213]]},"properties":{"layer":"river","districtId":"nura","osmType":"way","osmId":1177557346,"name":"Есіл","nameRu":"Ишим","isEsil":true}},{"type":"Feature","geometry":{"type":"LineString","coordinates":[[71.27305,51.18825],[71.2712,51.18889],[71.27,51.18883],[71.26668,51.19044],[71.26396,51.19122],[71.26277,51.19148],[71.26128,51.19149],[71.26075,51.19171],[71.26036,51.1923],[71.24687,51.19566],[71.24507,51.19655],[71.24313,51.19699],[71.24215,51.19775]]},"properties":{"layer":"river","districtId":"saryarka","osmType":"way","osmId":1227701194,"name":"Есіл","nameRu":"Ишим","isEsil":true}},{"type":"Feature","geometry":{"type":"LineString","coordinates":[[71.26773,51.18893],[71.26708,51.18888],[71.26578,51.18937],[71.26497,51.18901],[71.26432,51.18922],[71.26438,51.18948],[71.26487,51.1897],[71.26429,51.18998],[71.2628,51.19],[71.26263,51.18974],[71.26218,51.18975],[71.26195,51.19024],[71.26137,51.19025],[71.26133,51.19088]]},"properties":{"layer":"river","districtId":"saryarka","osmType":"way","osmId":1227701195,"name":null,"nameRu":null,"isEsil":false}},{"type":"Feature","geometry":{"type":"LineString","coordinates":[[71.30869,51.16641],[71.30737,51.16636],[71.30535,51.16773],[71.30423,51.16886],[71.3038,51.17042],[71.30277,51.17131],[71.30335,51.17154]]},"properties":{"layer":"river","districtId":"nura","osmType":"way","osmId":1227701199,"name":"Есіл","nameRu":"Ишим","isEsil":true}}]}